KUIPER-00241            
1 67149U 25301S   26062.75002315 -.00051381  00000+0 -67191-2 0  9992
2 67149  51.9012 101.8788 0002190  77.8047 338.7678 14.80199567  5451
KUIPER-00245            
1 67150U 25301T   26062.32602523  .00004950  00000+0  67728-3 0  9999
2 67150  51.9018 111.2666 0000444  58.6910 301.4096 14.79966199 12545
KUIPER-00246            
1 67151U 25301U   26062.75002315 -.00043519  00000+0 -27677-2 0  9994
2 67151  51.8962  95.6147 0005091  49.2999 219.9165 15.08335777  5770
KUIPER-00247            
1 67152U 25301V   26062.30090384  .00032301  00000+0  89516-3 0  9995
2 67152  51.8628  96.8387 0014122  33.9918 326.1971 15.36571319 12741
KUIPER-00248            
1 67153U 25301W   26062.33430110  .00040303  00000+0  10935-2 0  9993
2 67153  51.8670  96.3560 0011205  21.1403 339.0044 15.37157242 12924
KUIPER-00249            
1 67154U 25301X   26062.30820606  .00056514  00000+0  14941-2 0  9996
2 67154  51.8637  96.1702 0010236  22.5516 337.5919 15.37818837 12756
KUIPER-00250            
1 67155U 25301Y   26062.75002315 -.00435994  00000+0 -35658-1 0  9997
2 67155  51.9146  96.9221 0008878  31.9281 317.0013 15.01205243  5627
KUIPER-00251            
1 67156U 25301Z   26062.45436244  .00025468  00000+0  69222-3 0  9992
2 67156  51.8645  95.6544 0011154  25.0237 335.1288 15.37339999 12966
KUIPER-00252            
1 67157U 25301AA  26062.34170942  .00018151  00000+0  50087-3 0  9991
2 67157  51.8654  96.3881 0012542  30.1775 329.9932 15.37074925 12754
KUIPER-00261            
1 67158U 25301AB  26062.75002315 -.01642232  00000+0 -14615+0 0  9994
2 67158  51.8937  97.1845 0010045  41.7325  62.5028 14.98969433  5035
KUIPER-00265            
1 67159U 25301AC  26062.32331894  .00004729  00000+0  64843-3 0  9997
2 67159  51.9020 113.7637 0000665  39.6252 320.4758 14.79966340 12549
KUIPER-00159            
1 67764U 26030A   26062.90532519  .00039040  00000+0  11208-2 0  9990
2 67764  51.8843 247.0566 0004491  29.1743 330.9493 15.35461675  4205
KUIPER-00160            
1 67765U 26030B   26062.90636965  .00037208  00000+0  10741-2 0  9996
2 67765  51.8809 247.0561 0004852  39.3934 320.7404 15.35310997  4208
KUIPER-00177            
1 67766U 26030C   26062.89509274  .00041333  00000+0  11566-2 0  9997
2 67766  51.8830 246.9879 0000960  12.1860 347.9150 15.36245243  4207
KUIPER-00178            
1 67767U 26030D   26062.90803498  .00032770  00000+0  94955-3 0  9994
2 67767  51.8828 247.0710 0005840  30.6817 329.4510 15.35249761  4203
KUIPER-00180            
1 67768U 26030E   26062.93548280  .00021702  00000+0  69664-3 0  9995
2 67768  51.8795 247.2410 0014720  52.0044 308.2267 15.32146339  4201
